NORAD_CAT_ID,OBJECT_NAME,OBJECT_TYPE,EPOCH,MEAN_MOTION,ECCENTRICITY,INCLINATION,RA_OF_ASC_NODE,ARG_OF_PERICENTER,MEAN_ANOMALY,BSTAR,MEAN_MOTION_DOT,MEAN_MOTION_DDOT,TLE_LINE0,TLE_LINE1,TLE_LINE2,SEMIMAJOR_AXIS,PERIOD,APOGEE,PERIGEE,DECAYED
52467.0,STARLINK-3873,PAYLOAD,2023-01-28 12:22:01,15.08835065,0.0001217,53.2153,119.6109,80.7459,279.3671,4.153e-05,3.73e-06,0.0,0 STARLINK-3873,1 52467U 22049S   23028.51529468  .00000373  00000-0  41530-4 0  9996,2 52467  53.2153 119.6109 0001217  80.7459 279.3671 15.08835065 40882,6917.895,95.438,540.602,538.919,0.0
52467.0,STARLINK-3873,PAYLOAD,2023-01-28 15:32:47,15.08833904,0.0001243,53.2153,119.0158,79.9771,280.1361,0.00042155,6.426e-05,0.0,0 STARLINK-3873,1 52467U 22049S   23028.64777585  .00006426  00000-0  42155-3 0  9993,2 52467  53.2153 119.0158 0001243  79.9771 280.1361 15.08833904 40747,6917.899,95.438,540.624,538.904,0.0
52467.0,STARLINK-3873,PAYLOAD,2023-01-29 10:37:26,15.08839823,0.0001309,53.2156,115.4476,75.9798,284.1339,0.00069347,0.00010766,0.0,0 STARLINK-3873,1 52467U 22049S   23029.44266242  .00010766  00000-0  69347-3 0  9999,2 52467  53.2156 115.4476 0001309  75.9798 284.1339 15.08839823 40869,6917.881,95.438,540.651,538.84,0.0
52467.0,STARLINK-3873,PAYLOAD,2023-01-30 05:42:03,15.08842924,0.000129,53.2159,111.879,79.4934,280.6204,0.00033774,5.092e-05,0.0,0 STARLINK-3873,1 52467U 22049S   23030.23754244  .00005092  00000-0  33774-3 0  9993,2 52467  53.2159 111.8790 0001290  79.4934 280.6204 15.08842924 41141,6917.871,95.437,540.629,538.844,0.0
52467.0,STARLINK-3873,PAYLOAD,2023-01-30 12:03:36,15.08847572,0.0001277,53.2162,110.6896,80.0978,280.0159,0.00037623,5.706e-05,0.0,0 STARLINK-3873,1 52467U 22049S   23030.50250022  .00005706  00000-0  37623-3 0  9997,2 52467  53.2162 110.6896 0001277  80.0978 280.0159 15.08847572 41024,6917.857,95.437,540.606,538.839,0.0
52467.0,STARLINK-3873,PAYLOAD,2023-01-31 11:54:22,15.08847052,0.0001375,53.2167,106.2306,92.5965,267.5185,0.00016156,2.285e-05,0.0,0 STARLINK-3873,1 52467U 22049S   23031.49609765  .00002285  00000-0  16156-3 0  9995,2 52467  53.2167 106.2306 0001375  92.5965 267.5185 15.08847052 41335,6917.859,95.437,540.675,538.773,0.0
52467.0,STARLINK-3873,PAYLOAD,2023-01-31 21:26:41,15.08849366,0.0001425,53.2172,104.4463,98.8451,261.2703,0.00017042,2.426e-05,0.0,0 STARLINK-3873,1 52467U 22049S   23031.89353486  .00002426  00000-0  17042-3 0  9997,2 52467  53.2172 104.4463 0001425  98.8451 261.2703 15.08849366 41236,6917.852,95.437,540.703,538.731,0.0
52467.0,STARLINK-3873,PAYLOAD,2023-02-01 11:45:09,15.0884499,0.0001442,53.2184,101.771,103.0231,257.0922,5.7583e-05,6.29e-06,0.0,0 STARLINK-3873,1 52467U 22049S   23032.48969616  .00000629  00000-0  57583-4 0  9999,2 52467  53.2184 101.7710 0001442 103.0231 257.0922 15.08844990 41489,6917.865,95.437,540.728,538.733,0.0
52467.0,STARLINK-3873,PAYLOAD,2023-02-01 13:20:32,15.08848407,0.0001325,53.2174,101.473,98.4972,261.617,0.00011951,1.615e-05,0.0,0 STARLINK-3873,1 52467U 22049S   23032.55593422  .00001615  00000-0  11951-3 0  9999,2 52467  53.2174 101.4730 0001325  98.4972 261.6170 15.08848407 41333,6917.855,95.437,540.636,538.803,0.0
52467.0,STARLINK-3873,PAYLOAD,2023-02-02 03:39:01,15.08838805,0.0001159,53.2184,98.7979,75.5949,284.5172,-6.2684e-05,-1.285e-05,0.0,0 STARLINK-3873,1 52467U 22049S   23033.15209904 -.00001285  00000-0 -62684-4 0  9990,2 52467  53.2184  98.7979 0001159  75.5949 284.5172 15.08838805 41586,6917.884,95.438,540.551,538.947,0.0
52467.0,STARLINK-3873,PAYLOAD,2023-02-02 13:11:20,15.08836391,0.0001328,53.2169,97.0125,86.1845,273.9299,4.6858e-06,-2.13e-06,0.0,0 STARLINK-3873,1 52467U 22049S   23033.54954268 -.00000213  00000-0  46858-5 0  9998,2 52467  53.2169  97.0125 0001328  86.1845 273.9299 15.08836391 41484,6917.891,95.438,540.675,538.838,0.0
52467.0,STARLINK-3873,PAYLOAD,2023-02-03 05:05:12,15.08835275,0.0001298,53.2181,94.0393,95.2247,264.8893,3.128e-05,2.1e-06,0.0,0 STARLINK-3873,1 52467U 22049S   23034.21194628  .00000210  00000-0  31280-4 0  9997,2 52467  53.2181  94.0393 0001298  95.2247 264.8893 15.08835275 41743,6917.895,95.438,540.658,538.862,0.0
52467.0,STARLINK-3873,PAYLOAD,2023-02-03 13:02:07,15.08841749,0.000116,53.2164,92.5507,88.807,271.3055,0.0001002,1.307e-05,0.0,0 STARLINK-3873,1 52467U 22049S   23034.54314388  .00001307  00000-0  10020-3 0  9996,2 52467  53.2164  92.5507 0001160  88.8070 271.3055 15.08841749 41638,6917.875,95.437,540.543,538.938,0.0
52467.0,STARLINK-3873,PAYLOAD,2023-02-04 08:06:45,15.08843732,0.0001154,53.2169,88.984,90.5105,269.602,0.00029386,4.392e-05,0.0,0 STARLINK-3873,1 52467U 22049S   23035.33802644  .00004392  00000-0  29386-3 0  9993,2 52467  53.2169  88.9840 0001154  90.5105 269.6020 15.08843732 41911,6917.869,95.437,540.532,538.936,0.0
52467.0,STARLINK-3873,PAYLOAD,2023-02-04 11:17:31,15.08849793,0.0001145,53.2164,88.3885,94.3672,265.7451,0.0003704,5.614e-05,0.0,0 STARLINK-3873,1 52467U 22049S   23035.47050389  .00005614  00000-0  37040-3 0  9993,2 52467  53.2164  88.3885 0001145  94.3672 265.7451 15.08849793 41772,6917.85,95.437,540.508,538.923,0.0
52467.0,STARLINK-3873,PAYLOAD,2023-02-04 20:49:50,15.08842525,0.0001186,53.2164,86.6044,90.6851,269.4277,0.00016722,2.375e-05,0.0,0 STARLINK-3873,1 52467U 22049S   23035.86794636  .00002375  00000-0  16722-3 0  9991,2 52467  53.2164  86.6044 0001186  90.6851 269.4277 15.08842525 41833,6917.873,95.437,540.558,538.917,0.0
52467.0,STARLINK-3873,PAYLOAD,2023-02-05 04:46:46,15.08837052,0.0001155,53.2161,85.1174,93.5699,266.5426,0.00010764,1.426e-05,0.0,0 STARLINK-3873,1 52467U 22049S   23036.19914906  .00001426  00000-0  10764-3 0  9998,2 52467  53.2161  85.1174 0001155  93.5699 266.5426 15.08837052 42043,6917.889,95.438,540.553,538.955,0.0
52467.0,STARLINK-3873,PAYLOAD,2023-02-05 11:08:18,15.08844078,0.0001201,53.2165,83.928,92.5142,267.5988,0.00014149,1.965e-05,0.0,0 STARLINK-3873,1 52467U 22049S   23036.46410653  .00001965  00000-0  14149-3 0  9997,2 52467  53.2165  83.9280 0001201  92.5142 267.5988 15.08844078 41921,6917.868,95.437,540.564,538.902,0.0
52467.0,STARLINK-3873,PAYLOAD,2023-02-06 09:23:41,15.08861995,0.0001136,53.2175,79.765,99.572,260.5401,-8.3378e-05,-1.615e-05,0.0,0 STARLINK-3873,1 52467U 22049S   23037.39145625 -.00001615  00000-0 -83378-4 0  9999,2 52467  53.2175  79.7650 0001136  99.5720 260.5401 15.08861995 42226,6917.813,95.436,540.464,538.892,0.0
52467.0,STARLINK-3873,PAYLOAD,2023-02-06 10:59:04,15.08859406,0.0001196,53.2173,79.4669,103.0892,257.0233,2.4875e-05,1.08e-06,0.0,0 STARLINK-3873,1 52467U 22049S   23037.45769503  .00000108  00000-0  24875-4 0  9994,2 52467  53.2173  79.4669 0001196 103.0892 257.0233 15.08859406 42079,6917.821,95.436,540.513,538.859,0.0
52467.0,STARLINK-3873,PAYLOAD,2023-02-07 06:03:43,15.08841469,0.000136,53.2171,75.8985,95.7321,264.3826,0.00011634,1.564e-05,0.0,0 STARLINK-3873,1 52467U 22049S   23038.25258476  .00001564  00000-0  11634-3 0  9990,2 52467  53.2171  75.8985 0001360  95.7321 264.3826 15.08841469 42355,6917.876,95.437,540.682,538.8,0.0
52467.0,STARLINK-3873,PAYLOAD,2023-02-07 10:49:52,15.08848403,0.0001331,53.2171,75.006,93.3997,266.7147,0.00014324,1.993e-05,0.0,0 STARLINK-3873,1 52467U 22049S   23038.45129888  .00001993  00000-0  14324-3 0  9991,2 52467  53.2171  75.0060 0001331  93.3997 266.7147 15.08848403 42225,6917.855,95.437,540.64,538.799,0.0
52467.0,STARLINK-3873,PAYLOAD,2023-02-08 07:29:53,15.08842734,0.0001215,53.2162,71.1406,93.0442,267.0689,3.1561e-05,2.15e-06,0.0,0 STARLINK-3873,1 52467U 22049S   23039.31242359  .00000215  00000-0  31561-4 0  9995,2 52467  53.2162  71.1406 0001215  93.0442 267.0689 15.08842734 42517,6917.872,95.437,540.578,538.897,0.0
52467.0,STARLINK-3873,PAYLOAD,2023-02-08 09:05:16,15.0884633,0.0001211,53.2162,70.8432,92.8937,267.2194,8.8041e-05,1.114e-05,0.0,0 STARLINK-3873,1 52467U 22049S   23039.37866178  .00001114  00000-0  88041-4 0  9996,2 52467  53.2162  70.8432 0001211  92.8937 267.2194 15.08846330 42366,6917.861,95.437,540.564,538.888,0.0
52467.0,STARLINK-3873,PAYLOAD,2023-02-09 07:20:40,15.08838195,0.0001424,53.2166,66.6805,107.9282,252.1865,2.3251e-05,8.2e-07,0.0,0 STARLINK-3873,1 52467U 22049S   23040.30602856  .00000082  00000-0  23251-4 0  9997,2 52467  53.2166  66.6805 0001424 107.9282 252.1865 15.08838195 42665,6917.886,95.438,540.736,538.766,0.0
52467.0,STARLINK-3873,PAYLOAD,2023-02-09 10:31:26,15.08843355,0.0001528,53.2165,66.0844,111.6473,248.4682,0.00011553,1.551e-05,0.0,0 STARLINK-3873,1 52467U 22049S   23040.43850605  .00001551  00000-0  11553-3 0  9991,2 52467  53.2165  66.0844 0001528 111.6473 248.4682 15.08843355 42524,6917.87,95.437,540.792,538.678,0.0
52467.0,STARLINK-3873,PAYLOAD,2023-02-09 18:28:23,15.08834691,0.0001589,53.2176,64.5958,99.4078,260.7094,-2.7201e-05,-7.21e-06,0.0,0 STARLINK-3873,1 52467U 22049S   23040.76971224 -.00000721  00000-0 -27201-4 0  9996,2 52467  53.2176  64.5958 0001589  99.4078 260.7094 15.08834691 42578,6917.897,95.438,540.861,538.662,0.0
52467.0,STARLINK-3873,PAYLOAD,2023-02-10 02:25:19,15.08828435,0.0001407,53.2171,63.1093,108.2014,251.9131,1.3158e-05,-7.9e-07,0.0,0 STARLINK-3873,1 52467U 22049S   23041.10091739 -.00000079  00000-0  13158-4 0  9990,2 52467  53.2171  63.1093 0001407 108.2014 251.9131 15.08828435 42625,6917.916,95.438,540.754,538.807,0.0
52467.0,STARLINK-3873,PAYLOAD,2023-02-10 08:46:51,15.08842236,0.0001503,53.218,61.92,113.767,246.348,0.00015426,2.168e-05,0.0,0 STARLINK-3873,1 52467U 22049S   23041.36587105  .00002168  00000-0  15426-3 0  9994,2 52467  53.2180  61.9200 0001503 113.7670 246.3480 15.08842236 42829,6917.874,95.437,540.778,538.699,0.0
52467.0,STARLINK-3873,PAYLOAD,2023-02-11 08:37:38,15.08847613,0.0001483,53.2172,57.4607,122.1251,237.9885,0.00023688,3.485e-05,0.0,0 STARLINK-3873,1 52467U 22049S   23042.35947084  .00003485  00000-0  23688-3 0  9992,2 52467  53.2172  57.4607 0001483 122.1251 237.9885 15.08847613 42815,6917.857,95.437,540.748,538.696,0.0
